API VERSION: 1.2
API SOURCE: NASA/JPL Horizons API



*******************************************************************************
Ephemeris / API_USER Mon Oct 30 14:03:48 2023 Pasadena, USA      / Horizons    
*******************************************************************************
Target body name: Moon (301)                      {source: DE441}
Center body name: Earth (399)                     {source: DE441}
Center-site name: GEOCENTRIC
*******************************************************************************
Start time      : A.D. 2030-Jan-01 00:00:00.0000 UT      
Stop  time      : A.D. 2031-Jan-01 00:00:00.0000 UT      
Step-size       : 60 minutes
*******************************************************************************
Target pole/equ : MOON_ME                         {East-longitude positive}
Target radii    : 1737.4, 1737.4, 1737.4 km       {Equator_a, b, pole_c}       
Center geodetic : 0.0, 0.0, -6378.137             {E-lon(deg),Lat(deg),Alt(km)}
Center cylindric: 0.0, 0.0, 0.0                   {E-lon(deg),Dxy(km),Dz(km)}
Center pole/equ : ITRF93                          {East-longitude positive}
Center radii    : 6378.137, 6378.137, 6356.752 km {Equator_a, b, pole_c}       
Target primary  : Earth
Vis. interferer : MOON (R_eq= 1737.400) km        {source: DE441}
Rel. light bend : Sun                             {source: DE441}
Rel. lght bnd GM: 1.3271E+11 km^3/s^2                                          
Atmos refraction: NO (AIRLESS)
RA format       : HMS
Time format     : CAL 
Calendar mode   : Mixed Julian/Gregorian
EOP file        : eop.231027.p240119                                           
EOP coverage    : DATA-BASED 1962-JAN-20 TO 2023-OCT-27. PREDICTS-> 2024-JAN-18
Units conversion: 1 au= 149597870.700 km, c= 299792.458 km/s, 1 day= 86400.0 s 
Table cut-offs 1: Elevation (-90.0deg=NO ),Airmass (>38.000=NO), Daylight (NO )
Table cut-offs 2: Solar elongation (  0.0,180.0=NO ),Local Hour Angle( 0.0=NO )
Table cut-offs 3: RA/DEC angular rate (     0.0=NO )                           
Table format    : Comma Separated Values (spreadsheet)
***********************************************************************************************************************************************
 Date__(UT)__HR:MN, , , R.A._(ICRF), DEC__(ICRF),      Illu%,  ObsSub-LON, ObsSub-LAT,  SunSub-LON, SunSub-LAT,    NP.ang,  NP.dist,     S-T-O,
***********************************************************************************************************************************************
$$SOE
 2030-Jan-05 06:00, , , 20 03 40.31, -17 21 49.1,    1.75448,    5.062763,  -3.880298,  170.194570,   0.552141,  349.2850, -958.505,  164.7823,
 2030-Jan-05 07:00, , , 20 06 01.21, -17 12 01.5,    1.88029,    5.096236,  -3.937130,  169.686687,   0.553256,  349.0721, -957.945,  164.2426,
 2030-Jan-05 08:00, , , 20 08 21.72, -17 02 08.5,    2.01027,    5.129160,  -3.993494,  169.178806,   0.554370,  348.8608, -957.380,  163.7033,
 2030-Jan-05 09:00, , , 20 10 41.83, -16 52 10.1,    2.14439,    5.161530,  -4.049385,  168.670929,   0.555480,  348.6511, -956.812,  163.1644,
 2030-Jan-05 10:00, , , 20 13 01.54, -16 42 06.4,    2.28262,    5.193343,  -4.104799,  168.163055,   0.556589,  348.4430, -956.241,  162.6260,
 2030-Jan-05 11:00, , , 20 15 20.84, -16 31 57.6,    2.42492,    5.224593,  -4.159731,  167.655184,   0.557695,  348.2364, -955.666,  162.0881,
 2030-Jan-05 12:00, , , 20 17 39.75, -16 21 43.7,    2.57128,    5.255277,  -4.214175,  167.147317,   0.558800,  348.0315, -955.088,  161.5507,
 2030-Jan-05 13:00, , , 20 19 58.26, -16 11 24.8,    2.72166,    5.285392,  -4.268129,  166.639453,   0.559901,  347.8283, -954.506,  161.0139,
 2030-Jan-05 14:00, , , 20 22 16.37, -16 01 01.1,    2.87603,    5.314933,  -4.321586,  166.131593,   0.561001,  347.6267, -953.922,  160.4776,
 2030-Jan-05 15:00, , , 20 24 34.08, -15 50 32.6,    3.03437,    5.343897,  -4.374543,  165.623736,   0.562098,  347.4267, -953.335,  159.9418,
 2030-Jan-05 16:00, , , 20 26 51.40, -15 39 59.4,    3.19664,    5.372280,  -4.426996,  165.115884,   0.563193,  347.2284, -952.744,  159.4066,
 2030-Jan-05 17:00, , , 20 29 08.32, -15 29 21.6,    3.36281,    5.400078,  -4.478940,  164.608036,   0.564286,  347.0317, -952.151,  158.8720,
 2030-Jan-05 18:00, , , 20 31 24.85, -15 18 39.3,    3.53285,    5.427288,  -4.530371,  164.100191,   0.565377,  346.8367, -951.556,  158.3380,
 2030-Jan-05 19:00, , , 20 33 40.99, -15 07 52.6,    3.70672,    5.453907,  -4.581285,  163.592351,   0.566465,  346.6435, -950.958,  157.8045,
 2030-Jan-05 20:00, , , 20 35 56.74, -14 57 01.6,    3.88441,    5.479931,  -4.631678,  163.084515,   0.567551,  346.4519, -950.357,  157.2717,
 2030-Jan-05 21:00, , , 20 38 12.09, -14 46 06.3,    4.06587,    5.505358,  -4.681546,  162.576683,   0.568634,  346.2620, -949.755,  156.7395,
 2030-Jan-05 22:00, , , 20 40 27.06, -14 35 07.0,    4.25107,    5.530183,  -4.730887,  162.068856,   0.569716,  346.0738, -949.150,  156.2079,
 2030-Jan-05 23:00, , , 20 42 41.65, -14 24 03.6,    4.43998,    5.554404,  -4.779695,  161.561033,   0.570795,  345.8873, -948.543,  155.6770,
 2030-Jan-06 00:00, , , 20 44 55.85, -14 12 56.3,    4.63257,    5.578019,  -4.827969,  161.053215,   0.571871,  345.7026, -947.934,  155.1467,
 2030-Jan-06 01:00, , , 20 47 09.67, -14 01 45.2,    4.82881,    5.601023,  -4.875703,  160.545402,   0.572946,  345.5195, -947.323,  154.6170,
 2030-Jan-06 02:00, , , 20 49 23.11, -13 50 30.2,    5.02866,    5.623415,  -4.922896,  160.037594,   0.574018,  345.3382, -946.711,  154.0880,
 2030-Jan-06 03:00, , , 20 51 36.17, -13 39 11.7,    5.23208,    5.645191,  -4.969543,  159.529790,   0.575088,  345.1587, -946.097,  153.5596,
 2030-Jan-06 04:00, , , 20 53 48.85, -13 27 49.5,    5.43905,    5.666350,  -5.015643,  159.021992,   0.576155,  344.9809, -945.481,  153.0319,
 2030-Jan-06 05:00, , , 20 56 01.17, -13 16 23.9,    5.64954,    5.686888,  -5.061190,  158.514199,   0.577220,  344.8048, -944.865,  152.5049,
 2030-Jan-06 06:00, , , 20 58 13.11, -13 04 54.8,    5.86350,    5.706803,  -5.106184,  158.006411,   0.578283,  344.6305, -944.247,  151.9785,
 2030-Jan-06 07:00, , , 21 00 24.69, -12 53 22.5,    6.08090,    5.726094,  -5.150621,  157.498628,   0.579344,  344.4579, -943.627,  151.4528,
 2030-Jan-06 08:00, , , 21 02 35.90, -12 41 46.9,    6.30171,    5.744756,  -5.194498,  156.990851,   0.580402,  344.2871, -943.007,  150.9278,
 2030-Jan-06 09:00, , , 21 04 46.75, -12 30 08.2,    6.52590,    5.762789,  -5.237813,  156.483079,   0.581458,  344.1181, -942.386,  150.4035,
 2030-Jan-06 10:00, , , 21 06 57.23, -12 18 26.4,    6.75342,    5.780191,  -5.280563,  155.975313,   0.582512,  343.9508, -941.764,  149.8798,
 2030-Jan-06 11:00, , , 21 09 07.36, -12 06 41.7,    6.98426,    5.796959,  -5.322745,  155.467552,   0.583563,  343.7854, -941.142,  149.3569,
 2030-Jan-06 12:00, , , 21 11 17.14, -11 54 54.0,    7.21836,    5.813092,  -5.364358,  154.959798,   0.584612,  343.6216, -940.518,  148.8346,
 2030-Jan-06 13:00, , , 21 13 26.56, -11 43 03.6,    7.45570,    5.828587,  -5.405400,  154.452049,   0.585659,  343.4597, -939.895,  148.3130,
 2030-Jan-06 14:00, , , 21 15 35.64, -11 31 10.5,    7.69624,    5.843443,  -5.445867,  153.944306,   0.586703,  343.2995, -939.271,  147.7922,
 2030-Jan-06 15:00, , , 21 17 44.37, -11 19 14.7,    7.93995,    5.857659,  -5.485758,  153.436569,   0.587745,  343.1411, -938.646,  147.2720,
 2030-Jan-06 16:00, , , 21 19 52.76, -11 07 16.4,    8.18679,    5.871233,  -5.525071,  152.928838,   0.588785,  342.9845, -938.022,  146.7525,
 2030-Jan-06 17:00, , , 21 22 00.81, -10 55 15.7,    8.43673,    5.884164,  -5.563804,  152.421113,   0.589823,  342.8297, -937.397,  146.2337,
 2030-Jan-06 18:00, , , 21 24 08.52, -10 43 12.5,    8.68973,    5.896449,  -5.601955,  151.913394,   0.590858,  342.6767, -936.773,  145.7156,
 2030-Jan-06 19:00, , , 21 26 15.91, -10 31 07.0,    8.94575,    5.908089,  -5.639523,  151.405682,   0.591891,  342.5255, -936.149,  145.1983,
 2030-Jan-06 20:00, , , 21 28 22.96, -10 18 59.3,    9.20476,    5.919082,  -5.676506,  150.897977,   0.592922,  342.3760, -935.525,  144.6816,
 2030-Jan-06 21:00, , , 21 30 29.68, -10 06 49.5,    9.46673,    5.929426,  -5.712902,  150.390277,   0.593951,  342.2283, -934.901,  144.1656,
 2030-Jan-06 22:00, , , 21 32 36.09, -09 54 37.6,    9.73162,    5.939122,  -5.748710,  149.882585,   0.594977,  342.0825, -934.278,  143.6504,
 2030-Jan-06 23:00, , , 21 34 42.17, -09 42 23.6,    9.99940,    5.948167,  -5.783928,  149.374899,   0.596001,  341.9384, -933.655,  143.1359,
 2030-Jan-07 00:00, , , 21 36 47.94, -09 30 07.8,   10.27002,    5.956562,  -5.818556,  148.867220,   0.597023,  341.7961, -933.033,  142.6220,
 2030-Jan-07 01:00, , , 21 38 53.40, -09 17 50.1,   10.54346,    5.964305,  -5.852592,  148.359547,   0.598043,  341.6556, -932.412,  142.1089,
 2030-Jan-07 02:00, , , 21 40 58.55, -09 05 30.7,   10.81967,    5.971397,  -5.886034,  147.851882,   0.599060,  341.5170, -931.792,  141.5965,
 2030-Jan-07 03:00, , , 21 43 03.39, -08 53 09.5,   11.09864,    5.977835,  -5.918883,  147.344223,   0.600075,  341.3801, -931.173,  141.0848,
 2030-Jan-07 04:00, , , 21 45 07.93, -08 40 46.8,   11.38030,    5.983621,  -5.951136,  146.836571,   0.601088,  341.2450, -930.554,  140.5738,
 2030-Jan-07 05:00, , , 21 47 12.18, -08 28 22.5,   11.66465,    5.988754,  -5.982793,  146.328927,   0.602099,  341.1117, -929.937,  140.0635,
 2030-Jan-07 06:00, , , 21 49 16.13, -08 15 56.7,   11.95163,    5.993234,  -6.013854,  145.821289,   0.603108,  340.9802, -929.321,  139.5539,
 2030-Jan-07 07:00, , , 21 51 19.79, -08 03 29.5,   12.24121,    5.997060,  -6.044316,  145.313659,   0.604114,  340.8505, -928.707,  139.0451,
 2030-Jan-07 08:00, , , 21 53 23.16, -07 51 01.0,   12.53336,    6.000232,  -6.074181,  144.806037,   0.605118,  340.7225, -928.094,  138.5369,
